{"type": "FeatureCollection", "features": [ {"type": "Feature", "properties": {"norad_id": 37216, "name": "COSMO-SKYMED 4", "group": "resource", "lat": 42.90976721403137, "lon": 9.28716907890409, "alt_km": 618.3971067434359, "timestamp": "2025-12-26T18:39:31.929125+00:00", "meta": {"OBJECT_NAME": "COSMO-SKYMED 4", "OBJECT_ID": "2010-060A", "EPOCH": "2025-12-26T14:48:17.023680", "MEAN_MOTION": 14.82164035, "ECCENTRICITY": 0.00014162, "INCLINATION": 97.8808, "RA_OF_ASC_NODE": 181.7312, "ARG_OF_PERICENTER": 82.7518, "MEAN_ANOMALY": 277.3856, "EPHEMERIS_TYPE": 0, "CLASSIFICATION_TYPE": "U", "NORAD_CAT_ID": 37216, "ELEMENT_SET_NO": 999, "REV_AT_EPOCH": 81900, "BSTAR": 0.00015834758, "MEAN_MOTION_DOT": 1.209e-05, "MEAN_MOTION_DDOT": 0}, "tle": {"line1": "1 37216U 10060A   25360.61686370  .00001209  00000+0  15835-3 0  9995", "line2": "2 37216  97.8808 181.7312 0001416  82.7518 277.3856 14.82164035819007"}}, "geometry": {"type": "Point", "coordinates": [9.28716907890409, 42.90976721403137]}}, {"type": "Feature", "properties": {"norad_id": 37387, "name": "RESOURCESAT-2", "group": "resource", "lat": -71.43242797555395, "lon": 91.67784093281684, "alt_km": 826.3317656233994, "timestamp": "2025-12-26T18:39:31.929135+00:00", "meta": {"OBJECT_NAME": "RESOURCESAT-2", "OBJECT_ID": "2011-015A", "EPOCH": "2025-12-26T13:56:11.927040", "MEAN_MOTION": 14.2159663, "ECCENTRICITY": 0.00057489, "INCLINATION": 98.7857, "RA_OF_ASC_NODE": 64.0692, "ARG_OF_PERICENTER": 4.6253, "MEAN_ANOMALY": 355.4976, "EPHEMERIS_TYPE": 0, "CLASSIFICATION_TYPE": "U", "NORAD_CAT_ID": 37387, "ELEMENT_SET_NO": 999, "REV_AT_EPOCH": 76165, "BSTAR": 7.659926e-05, "MEAN_MOTION_DOT": 1.23e-06, "MEAN_MOTION_DDOT": 0}, "tle": {"line1": "1 37387U 11015A   25360.58069360  .00000123  00000+0  76599-4 0  9994", "line2": "2 37387  98.7857  64.0692 0005748   4.6253 355.4976 14.21596630761656"}}, "geometry": {"type": "Point", "coordinates": [91.67784093281684, -71.43242797555395]}}, {"type": "Feature", "properties": {"norad_id": 37781, "name": "HAIYANG-2A", "group": "resource", "lat": -23.11087086488563, "lon": 5.522148830518218, "alt_km": 973.2833134401899, "timestamp": "2025-12-26T18:39:31.929146+00:00", "meta": {"OBJECT_NAME": "HAIYANG-2A", "OBJECT_ID": "2011-043A", "EPOCH": "2025-12-26T15:17:21.227136", "MEAN_MOTION": 13.78835587, "ECCENTRICITY": 0.00015604, "INCLINATION": 99.3382, "RA_OF_ASC_NODE": 1.3573, "ARG_OF_PERICENTER": 64.5543, "MEAN_ANOMALY": 295.5769, "EPHEMERIS_TYPE": 0, "CLASSIFICATION_TYPE": "U", "NORAD_CAT_ID": 37781, "ELEMENT_SET_NO": 999, "REV_AT_EPOCH": 72290, "BSTAR": -0.00016944319, "MEAN_MOTION_DOT": -2.17e-06, "MEAN_MOTION_DDOT": 0}, "tle": {"line1": "1 37781U 11043A   25360.63705124 -.00000217  00000+0 -16944-3 0  9997", "line2": "2 37781  99.3382   1.3573 0001560  64.5543 295.5769 13.78835587722908"}}, "geometry": {"type": "Point", "coordinates": [5.522148830518218, -23.11087086488563]}}, {"type": "Feature", "properties": {"norad_id": 37791, "name": "RASAT", "group": "resource", "lat": -81.5821702893878, "lon": -163.51053066232, "alt_km": 681.2996041447323, "timestamp": "2025-12-26T18:39:31.929156+00:00", "meta": {"OBJECT_NAME": "RASAT", "OBJECT_ID": "2011-044D", "EPOCH": "2025-12-26T16:32:11.332320", "MEAN_MOTION": 14.67929556, "ECCENTRICITY": 0.00212483, "INCLINATION": 98.0638, "RA_OF_ASC_NODE": 89.7393, "ARG_OF_PERICENTER": 22.7068, "MEAN_ANOMALY": 138.0558, "EPHEMERIS_TYPE": 0, "CLASSIFICATION_TYPE": "U", "NORAD_CAT_ID": 37791, "ELEMENT_SET_NO": 999, "REV_AT_EPOCH": 76787, "BSTAR": 0.00017035912, "MEAN_MOTION_DOT": 9.29e-06, "MEAN_MOTION_DDOT": 0}, "tle": {"line1": "1 37791U 11044D   25360.68902005  .00000929  00000+0  17036-3 0  9992", "line2": "2 37791  98.0638  89.7393 0021248  22.7068 138.0558 14.67929556767873"}}, "geometry": {"type": "Point", "coordinates": [-163.51053066232, -81.5821702893878]}}, {"type": "Feature", "properties": {"norad_id": 37841, "name": "SRMSAT", "group": "resource", "lat": -19.595518021988877, "lon": -55.562914483130605, "alt_km": 862.6469144012945, "timestamp": "2025-12-26T18:39:31.929166+00:00", "meta": {"OBJECT_NAME": "SRMSAT", "OBJECT_ID": "2011-058D", "EPOCH": "2025-12-26T02:10:29.616384", "MEAN_MOTION": 14.11515861, "ECCENTRICITY": 0.00119908, "INCLINATION": 19.9732, "RA_OF_ASC_NODE": 27.151, "ARG_OF_PERICENTER": 99.3628, "MEAN_ANOMALY": 283.7397, "EPHEMERIS_TYPE": 0, "CLASSIFICATION_TYPE": "U", "NORAD_CAT_ID": 37841, "ELEMENT_SET_NO": 999, "REV_AT_EPOCH": 73333, "BSTAR": 9.1637558e-05, "MEAN_MOTION_DOT": 4.34e-06, "MEAN_MOTION_DDOT": 0}, "tle": {"line1": "1 37841U 11058D   25360.09062056  .00000434  00000+0  91638-4 0  9993", "line2": "2 37841  19.9732  27.1510 0011990  99.3628 283.7397 14.11515861733330"}}, "geometry": {"type": "Point", "coordinates": [-55.562914483130605, -19.595518021988877]}}, {"type": "Feature", "properties": {"norad_id": 38012, "name": "PLEIADES 1A", "group": "resource", "lat": -48.26903547465909, "lon": 82.60925653721937, "alt_km": 705.0543375343377, "timestamp": "2025-12-26T18:39:31.929176+00:00", "meta": {"OBJECT_NAME": "PLEIADES 1A", "OBJECT_ID": "2011-076F", "EPOCH": "2025-12-26T16:17:18.041856", "MEAN_MOTION": 14.58574896, "ECCENTRICITY": 0.0001081, "INCLINATION": 98.1803, "RA_OF_ASC_NODE": 73.2312, "ARG_OF_PERICENTER": 76.2807, "MEAN_ANOMALY": 76.5492, "EPHEMERIS_TYPE": 0, "CLASSIFICATION_TYPE": "U", "NORAD_CAT_ID": 38012, "ELEMENT_SET_NO": 999, "REV_AT_EPOCH": 74684, "BSTAR": 0.00014752426, "MEAN_MOTION_DOT": 6.41e-06, "MEAN_MOTION_DDOT": 0}, "tle": {"line1": "1 38012U 11076F   25360.67868104  .00000641  00000+0  14752-3 0  9997", "line2": "2 38012  98.1803  73.2312 0001081  76.2807  76.5492 14.58574896746842"}}, "geometry": {"type": "Point", "coordinates": [82.60925653721937, -48.26903547465909]}}, {"type": "Feature", "properties": {"norad_id": 38038, "name": "ZIYUAN 1-02C (ZY 1-02C)", "group": "resource", "lat": -78.60281619759988, "lon": -160.84047229445298, "alt_km": 777.4496854903755, "timestamp": "2025-12-26T18:39:31.929186+00:00", "meta": {"OBJECT_NAME": "ZIYUAN 1-02C (ZY 1-02C)", "OBJECT_ID": "2011-079A", "EPOCH": "2025-12-26T16:28:27.931296", "MEAN_MOTION": 14.38028638, "ECCENTRICITY": 0.00075707, "INCLINATION": 98.4311, "RA_OF_ASC_NODE": 66.4418, "ARG_OF_PERICENTER": 101.8846, "MEAN_ANOMALY": 49.4565, "EPHEMERIS_TYPE": 0, "CLASSIFICATION_TYPE": "U", "NORAD_CAT_ID": 38038, "ELEMENT_SET_NO": 999, "REV_AT_EPOCH": 73441, "BSTAR": 0.0002828575, "MEAN_MOTION_DOT": 8.13e-06, "MEAN_MOTION_DDOT": 0}, "tle": {"line1": "1 38038U 11079A   25360.68643439  .00000813  00000+0  28286-3 0  9999", "line2": "2 38038  98.4311  66.4418 0007570 101.8846  49.4565 14.38028638734411"}}, "geometry": {"type": "Point", "coordinates": [-160.84047229445298, -78.60281619759988]}}, {"type": "Feature", "properties": {"norad_id": 38338, "name": "ARIRANG-3 (KOMPSAT-3)", "group": "resource", "lat": 7.773540465966177, "lon": -45.67248579779434, "alt_km": 688.9407939535922, "timestamp": "2025-12-26T18:39:31.929197+00:00", "meta": {"OBJECT_NAME": "ARIRANG-3 (KOMPSAT-3)", "OBJECT_ID": "2012-025B", "EPOCH": "2025-12-26T15:20:14.320032", "MEAN_MOTION": 14.61730721, "ECCENTRICITY": 0.00046543, "INCLINATION": 98.3342, "RA_OF_ASC_NODE": 315.3347, "ARG_OF_PERICENTER": 288.2565, "MEAN_ANOMALY": 71.8129, "EPHEMERIS_TYPE": 0, "CLASSIFICATION_TYPE": "U", "NORAD_CAT_ID": 38338, "ELEMENT_SET_NO": 999, "REV_AT_EPOCH": 72613, "BSTAR": 0.00014194635, "MEAN_MOTION_DOT": 6.59e-06, "MEAN_MOTION_DDOT": 0}, "tle": {"line1": "1 38338U 12025B   25360.63905463  .00000659  00000+0  14195-3 0  9999", "line2": "2 38338  98.3342 315.3347 0004654 288.2565  71.8129 14.61730721726136"}}, "geometry": {"type": "Point", "coordinates": [-45.67248579779434, 7.773540465966177]}}, {"type": "Feature", "properties": {"norad_id": 38709, "name": "EXACTVIEW-1 (ADS-1B)", "group": "resource", "lat": -50.49903192033028, "lon": 120.50045080600938, "alt_km": 808.4189757215745, "timestamp": "2025-12-26T18:39:31.929207+00:00", "meta": {"OBJECT_NAME": "EXACTVIEW-1 (ADS-1B)", "OBJECT_ID": "2012-039C", "EPOCH": "2025-12-26T13:50:35.905344", "MEAN_MOTION": 14.24913533, "ECCENTRICITY": 0.00100745, "INCLINATION": 98.9638, "RA_OF_ASC_NODE": 109.2573, "ARG_OF_PERICENTER": 312.4557, "MEAN_ANOMALY": 47.5769, "EPHEMERIS_TYPE": 0, "CLASSIFICATION_TYPE": "U", "NORAD_CAT_ID": 38709, "ELEMENT_SET_NO": 999, "REV_AT_EPOCH": 69812, "BSTAR": 9.4102971e-05, "MEAN_MOTION_DOT": 1.73e-06, "MEAN_MOTION_DDOT": 0}, "tle": {"line1": "1 38709U 12039C   25360.57680446  .00000173  00000+0  94103-4 0  9999", "line2": "2 38709  98.9638 109.2573 0010074 312.4557  47.5769 14.24913533698127"}}, "geometry": {"type": "Point", "coordinates": [120.50045080600938, -50.49903192033028]}}, {"type": "Feature", "properties": {"norad_id": 38755, "name": "SPOT 6", "group": "resource", "lat": -53.56267145973593, "lon": -125.89798928446427, "alt_km": 705.6801196642618, "timestamp": "2025-12-26T18:39:31.929217+00:00", "meta": {"OBJECT_NAME": "SPOT 6", "OBJECT_ID": "2012-047A", "EPOCH": "2025-12-26T14:17:42.321408", "MEAN_MOTION": 14.5854533, "ECCENTRICITY": 0.00012348, "INCLINATION": 98.1549, "RA_OF_ASC_NODE": 65.1233, "ARG_OF_PERICENTER": 76.5824, "MEAN_ANOMALY": 283.5513, "EPHEMERIS_TYPE": 0, "CLASSIFICATION_TYPE": "U", "NORAD_CAT_ID": 38755, "ELEMENT_SET_NO": 999, "REV_AT_EPOCH": 70789, "BSTAR": 0.00015142272, "MEAN_MOTION_DOT": 6.59e-06, "MEAN_MOTION_DDOT": 0}, "tle": {"line1": "1 38755U 12047A   25360.59562872  .00000659  00000+0  15142-3 0  9997", "line2": "2 38755  98.1549  65.1233 0001234  76.5824 283.5513 14.58545330707894"}}, "geometry": {"type": "Point", "coordinates": [-125.89798928446427, -53.56267145973593]}}]}